{"epoch":1784799577,"count":18318,"objects":[{"id":"43010","name":"FENGYUN 3D","type":"PAYLOAD","l1":"1 43010U 17072A   26203.94846613 -.00000327  00000-0 -13258-3 0  9995","l2":"2 43010  99.0155 179.0213 0001046 358.8244   1.2929 14.19744409450068"},{"id":"43013","name":"NOAA 20","type":"PAYLOAD","l1":"1 43013U 17073A   26203.87882556  .00000045  00000-0  42510-4 0  9996","l2":"2 43013  98.7772 143.0254 0001644 115.9335 244.2011 14.19517617449535"},{"id":"43226","name":"GOES 17","type":"PAYLOAD","l1":"1 43226U 18022A   26203.88176406 -.00000179  00000-0  00000-0 0  9991","l2":"2 43226   1.0261  85.1534 0000700  56.8779  26.5257  1.00271965 30780"},{"id":"43437","name":"SENTINEL 3B","type":"PAYLOAD","l1":"1 43437U 18039A   26203.67541338  .00000064  00000-0  44504-4 0  9993","l2":"2 43437  98.6229 270.6951 0001299 118.4511 241.6800 14.26737900429185"},{"id":"43491","name":"FENGYUN 2H","type":"PAYLOAD","l1":"1 43491U 18050A   26203.91513694 -.00000124  00000-0  00000-0 0  9994","l2":"2 43491   3.1211  78.6563 0002048 124.5777 145.8798  1.00267294 29793"},{"id":"43689","name":"METOP-C","type":"PAYLOAD","l1":"1 43689U 18087A   26203.89520356  .00000065  00000-0  49307-4 0  9993","l2":"2 43689  98.6623 262.8423 0002075  83.8678 276.2736 14.21504331399904"},{"id":"43823","name":"GEO-KOMPSAT-2A","type":"PAYLOAD","l1":"1 43823U 18100A   26203.92484366  .00000000  00000-0  00000-0 0  9995","l2":"2 43823   0.0214  78.1066 0002581  21.7736 301.9984  1.00268710 27984"},{"id":"44387","name":"METEOR M2-2","type":"PAYLOAD","l1":"1 44387U 19038A   26203.92960854  .00000089  00000-0  58318-4 0  9999","l2":"2 44387  98.9174 191.7465 0000194 346.0818  14.0354 14.24374482366385"},{"id":"47719","name":"ARKTIKA-M 1","type":"PAYLOAD","l1":"1 47719U 21016A   26198.89672402 -.00000295  00000-0  00000-0 0  9999","l2":"2 47719  63.2571  53.1467 7298516 270.0868  14.5016  2.00610215 39409"},{"id":"49008","name":"FENGYUN 3E","type":"PAYLOAD","l1":"1 49008U 21062A   26203.99886056 -.00000058  00000-0 -66953-5 0  9995","l2":"2 49008  98.7513 207.0090 0001833  26.2066 333.9203 14.19906308261666"},{"id":"51850","name":"GOES 18","type":"PAYLOAD","l1":"1 51850U 22021A   26203.72977650  .00000101  00000-0  00000-0 0  9994","l2":"2 51850   0.0046 120.3838 0000484  28.4761 277.3187  1.00271982  6944"},{"id":"54234","name":"NOAA 21","type":"PAYLOAD","l1":"1 54234U 22150A   26203.84051430  .00000023  00000-0  31471-4 0  9991","l2":"2 54234  98.7059 142.0310 0002914  90.9390 269.2120 14.19541988191604"},{"id":"54743","name":"METEOSAT 12 (MTG I1)","type":"PAYLOAD","l1":"1 54743U 22170C   26203.92974457 -.00000005  00000-0  00000-0 0  9991","l2":"2 54743   0.7327  21.0008 0004160  81.0689 172.9063  1.00270034 13333"},{"id":"55973","name":"TIANMU-1 03","type":"PAYLOAD","l1":"1 55973U 23039A   26203.93159032  .00017131  00000-0  32695-3 0  9992","l2":"2 55973  97.5251  19.3294 0001941 356.0708   4.0526 15.48212013186360"},{"id":"55974","name":"TIANMU-1 04","type":"PAYLOAD","l1":"1 55974U 23039B   26203.90687596  .00018024  00000-0  33638-3 0  9991","l2":"2 55974  97.5190  18.4609 0002263 341.6628  18.4540 15.48843467186371"},{"id":"55975","name":"TIANMU-1 05","type":"PAYLOAD","l1":"1 55975U 23039C   26203.91410885  .00016698  00000-0  31959-3 0  9997","l2":"2 55975  97.5233  18.9133 0002328  26.7741 333.3628 15.48133451186344"},{"id":"55976","name":"TIANMU-1 06","type":"PAYLOAD","l1":"1 55976U 23039D   26203.91257814  .00017492  00000-0  32775-3 0  9999","l2":"2 55976  97.5241  19.5839 0002329  15.1363 344.9956 15.48737416186373"},{"id":"56232","name":"FENGYUN 3G","type":"PAYLOAD","l1":"1 56232U 23055A   26203.93642895  .00027002  00000-0  41376-3 0  9997","l2":"2 56232  49.9912 161.6096 0006816  93.1017 267.0730 15.54061298185566"},{"id":"57166","name":"METEOR M2-3","type":"PAYLOAD","l1":"1 57166U 23091A   26203.93220137 -.00000021  00000-0  97437-5 0  9999","l2":"2 57166  98.6063 258.1751 0005052  73.0449 287.1284 14.24049323159602"},{"id":"57399","name":"TIANMU-1 07","type":"PAYLOAD","l1":"1 57399U 23101A   26203.94017735  .00006976  00000-0  24141-3 0  9992","l2":"2 57399  97.2576 253.7918 0003156  48.6129 311.5383 15.30180958167111"},{"id":"57400","name":"TIANMU-1 08","type":"PAYLOAD","l1":"1 57400U 23101B   26203.90672686  .00006641  00000-0  22990-3 0  9992","l2":"2 57400  97.2566 253.5246 0003827  24.8596 335.2829 15.30183425167103"},{"id":"57401","name":"TIANMU-1 09","type":"PAYLOAD","l1":"1 57401U 23101C   26203.95467112  .00007301  00000-0  25214-3 0  9990","l2":"2 57401  97.2524 252.9691 0003754  46.5859 313.5694 15.30227481167118"},{"id":"57402","name":"TIANMU-1 10","type":"PAYLOAD","l1":"1 57402U 23101D   26203.92294986  .00006854  00000-0  23703-3 0  9998","l2":"2 57402  97.2603 254.0252 0004923  32.4686 327.6857 15.30200554167102"},{"id":"57490","name":"FENGYUN 3F","type":"PAYLOAD","l1":"1 57490U 23111A   26203.91144359  .00000009  00000-0  24755-4 0  9998","l2":"2 57490  98.6820 273.2515 0001123  74.9337 285.1964 14.19944297153931"},{"id":"58584","name":"ARKTIKA-M 2","type":"PAYLOAD","l1":"1 58584U 23198A   26202.15670971  .00000142  00000-0  00000-0 0  9998","l2":"2 58584  63.2169 150.5623 6912649 267.3229  18.7284  2.00607150 19000"},{"id":"58645","name":"TIANMU-1 11","type":"PAYLOAD","l1":"1 58645U 23205A   26203.96000957  .00005848  00000-0  22117-3 0  9990","l2":"2 58645  97.3450 224.9621 0007244 227.8359 132.2265 15.27320301142986"},{"id":"58646","name":"TIANMU-1 12","type":"PAYLOAD","l1":"1 58646U 23205B   26203.67156534  .00004112  00000-0  15785-3 0  9998","l2":"2 58646  97.3438 224.4213 0006487 209.2071 150.8807 15.27003015142920"},{"id":"58647","name":"TIANMU-1 13","type":"PAYLOAD","l1":"1 58647U 23205C   26203.90121756  .00005831  00000-0  22170-3 0  9998","l2":"2 58647  97.3466 224.9308 0006690 182.9948 177.1252 15.27145642142950"},{"id":"58648","name":"TIANMU-1 14","type":"PAYLOAD","l1":"1 58648U 23205D   26203.95091306  .00006280  00000-0  23820-3 0  9993","l2":"2 58648  97.3403 224.1335 0007305 189.6893 170.4207 15.27190565142962"},{"id":"58660","name":"TIANMU-1 19","type":"PAYLOAD","l1":"1 58660U 23208A   26203.95353571  .00009493  00000-0  30900-3 0  9991","l2":"2 58660  97.4524 320.4541 0005350 171.0158 189.1180 15.32064748142806"}]}